$$SOE
2460728.500000000, A.D. 2025-Feb-22 00:00:00.0000, 2.650443771795688E+08, 9.037004411229183E+07, -4.833153234367050E+07,
2460735.500000000, A.D. 2025-Mar-01 00:00:00.0000, 2.634792503730295E+08, 1.041661644021552E+08, -4.930657093168589E+07,
2460742.500000000, A.D. 2025-Mar-08 00:00:00.0000, 2.613763392277035E+08, 1.177498623303137E+08, -5.018098293652890E+07,
2460749.500000000, A.D. 2025-Mar-15 00:00:00.0000, 2.587586867770503E+08, 1.311018590792457E+08, -5.095658258445700E+07,
2460756.500000000, A.D. 2025-Mar-22 00:00:00.0000, 2.556493041567943E+08, 1.442049090232753E+08, -5.163535781891488E+07,
2460763.500000000, A.D. 2025-Mar-29 00:00:00.0000, 2.520710337677943E+08, 1.570436674907218E+08, -5.221943817801789E+07,
2460770.500000000, A.D. 2025-Apr-05 00:00:00.0000, 2.480464367460445E+08, 1.696045584135921E+08, -5.271106611269682E+07,
2460777.500000000, A.D. 2025-Apr-12 00:00:00.0000, 2.435977005637652E+08, 1.818756443278890E+08, -5.311257142439026E+07,
2460784.500000000, A.D. 2025-Apr-19 00:00:00.0000, 2.387465643390400E+08, 1.938464996707063E+08, -5.342634869752945E+07,
2460791.500000000, A.D. 2025-Apr-26 00:00:00.0000, 2.335142599647668E+08, 2.055080885386924E+08, -5.365483755975804E+07,
2460798.500000000, A.D. 2025-May-03 00:00:00.0000, 2.279214671282457E+08, 2.168526479065089E+08, -5.380050555400185E+07,
2460805.500000000, A.D. 2025-May-10 00:00:00.0000, 2.219882803549341E+08, 2.278735769716538E+08, -5.386583339360368E+07,
2460812.500000000, A.D. 2025-May-17 00:00:00.0000, 2.157341863811913E+08, 2.385653329805587E+08, -5.385330237831686E+07,
2460819.500000000, A.D. 2025-May-24 00:00:00.0000, 2.091780504675934E+08, 2.489233336689494E+08, -5.376538377019500E+07,
2460826.500000000, A.D. 2025-May-31 00:00:00.0000, 2.023381106783049E+08, 2.589438666515473E+08, -5.360452993280547E+07,
2460833.500000000, A.D. 2025-Jun-07 00:00:00.0000, 1.952319784955195E+08, 2.686240068591886E+08, -5.337316690197613E+07,
2460840.500000000, A.D. 2025-Jun-14 00:00:00.0000, 1.878766423171394E+08, 2.779615411530717E+08, -5.307368804060911E+07,
2460847.500000000, A.D. 2025-Jun-21 00:00:00.0000, 1.802884741105349E+08, 2.869548965897983E+08, -5.270844899017545E+07,
2460854.500000000, A.D. 2025-Jun-28 00:00:00.0000, 1.724832415477874E+08, 2.956030737993288E+08, -5.227976391430246E+07,
2460861.500000000, A.D. 2025-Jul-05 00:00:00.0000, 1.644761234108795E+08, 3.039055872903135E+08, -5.178990258286208E+07,
2460868.500000000, A.D. 2025-Jul-12 00:00:00.0000, 1.562817264798001E+08, 3.118624115242234E+08, -5.124108813067603E+07,
2460875.500000000, A.D. 2025-Jul-19 00:00:00.0000, 1.479141035902713E+08, 3.194739318284486E+08, -5.063549544736530E+07,
2460882.500000000, A.D. 2025-Jul-26 00:00:00.0000, 1.393867726489983E+08, 3.267408997405592E+08, -4.997525012713826E+07,
2460889.500000000, A.D. 2025-Aug-02 00:00:00.0000, 1.307127363196748E+08, 3.336643924632285E+08, -4.926242789910825E+07,
2460896.500000000, A.D. 2025-Aug-09 00:00:00.0000, 1.219045021117700E+08, 3.402457760861478E+08, -4.849905446817951E+07,
2460903.500000000, A.D. 2025-Aug-16 00:00:00.0000, 1.129741027102688E+08, 3.464866721979383E+08, -4.768710571455969E+07,
2460910.500000000, A.D. 2025-Aug-23 00:00:00.0000, 1.039331166450394E+08, 3.523889276070178E+08, -4.682850822110851E+07,
2460917.500000000, A.D. 2025-Aug-30 00:00:00.0000, 9.479268947260746E+07, 3.579545876051517E+08, -4.592514005104850E+07,
2460924.500000000, A.D. 2025-Sep-06 00:00:00.0000, 8.556355392760009E+07, 3.631858735090455E+08, -4.497883152073768E+07,
2460931.500000000, A.D. 2025-Sep-13 00:00:00.0000, 7.625604726861012E+07, 3.680851617471103E+08, -4.399136597761928E+07,
2460938.500000000, A.D. 2025-Sep-20 00:00:00.0000, 6.688012900536754E+07, 3.726549626288968E+08, -4.296448098608288E+07,
2460945.500000000, A.D. 2025-Sep-27 00:00:00.0000, 5.744540000967224E+07, 3.768979017174518E+08, -4.189986974068314E+07,
2460952.500000000, A.D. 2025-Oct-04 00:00:00.0000, 4.796112095754813E+07, 3.808167041610674E+08, -4.079918245670502E+07,
2460959.500000000, A.D. 2025-Oct-11 00:00:00.0000, 3.843622970439999E+07, 3.844141808708804E+08, -3.966402776188205E+07,
2460966.500000000, A.D. 2025-Oct-18 00:00:00.0000, 2.887935786226573E+07, 3.876932161133981E+08, -3.849597412131904E+07,
2460973.500000000, A.D. 2025-Oct-25 00:00:00.0000, 1.929884671188863E+07, 3.906567563856010E+08, -3.729655129347643E+07,
2460980.500000000, A.D. 2025-Nov-01 00:00:00.0000, 9.702762488426432E+06, 3.933078004577172E+08, -3.606725180775996E+07,
2460987.500000000, A.D. 2025-Nov-08 00:00:00.0000, 9.891108001100009E+04, 3.956493904342798E+08, -3.480953245972997E+07,
2460994.500000000, A.D. 2025-Nov-15 00:00:00.0000, -9.505147703913121E+06, 3.976846036684636E+08, -3.352481583437839E+07,
2461001.500000000, A.D. 2025-Nov-22 00:00:00.0000, -1.910208587930819E+07, 3.994165456542538E+08, -3.221449187013729E+07,
2461008.500000000, A.D. 2025-Nov-29 00:00:00.0000, -2.868479318684376E+07, 4.008483449469341E+08, -3.087991935215649E+07,
2461015.500000000, A.D. 2025-Dec-06 00:00:00.0000, -3.824636540062412E+07, 4.019831498990986E+08, -2.952242713349839E+07,
2461022.500000000, A.D. 2025-Dec-13 00:00:00.0000, -4.778009459114134E+07, 4.028241237666230E+08, -2.814331539532740E+07,
2461029.500000000, A.D. 2025-Dec-20 00:00:00.0000, -5.727945783157720E+07, 4.033744391431773E+08, -2.674385717988844E+07,
2461036.500000000, A.D. 2025-Dec-27 00:00:00.0000, -6.673810539921038E+07, 4.036372742614086E+08, -2.532529988500886E+07,
2461043.500000000, A.D. 2026-Jan-03 00:00:00.0000, -7.614984990682188E+07, 4.036158104926816E+08, -2.388886663519982E+07,
2461050.500000000, A.D. 2026-Jan-10 00:00:00.0000, -8.550865623260492E+07, 4.033132303176048E+08, -2.243575759359206E+07,
2461057.500000000, A.D. 2026-Jan-17 00:00:00.0000, -9.480863199592645E+07, 4.027327156334333E+08, -2.096715124296571E+07,
2461064.500000000, A.D. 2026-Jan-24 00:00:00.0000, -1.040440184815677E+08, 4.018774463847956E+08, -1.948420564126076E+07,
2461071.500000000, A.D. 2026-Jan-31 00:00:00.0000, -1.132091819696832E+08, 4.007505994794318E+08, -1.798805965483798E+07,
2461078.500000000, A.D. 2026-Feb-07 00:00:00.0000, -1.222986053904152E+08, 3.993553479049678E+08, -1.647983418053782E+07,
2461085.500000000, A.D. 2026-Feb-14 00:00:00.0000, -1.313068800304336E+08, 3.976948600079085E+08, -1.496063338177696E+07,
2461092.500000000, A.D. 2026-Feb-21 00:00:00.0000, -1.402286968847646E+08, 3.957722994909846E+08, -1.343154592790413E+07,
2461099.500000000, A.D. 2026-Feb-28 00:00:00.0000, -1.490588387205214E+08, 3.935908272649112E+08, -1.189364604415803E+07,
2461106.500000000, A.D. 2026-Mar-07 00:00:00.0000, -1.577921748912643E+08, 3.911536031887640E+08, -1.034799434396413E+07,
2461113.500000000, A.D. 2026-Mar-14 00:00:00.0000, -1.664236561069748E+08, 3.884637853469546E+08, -8.795638889275908E+06,
2461120.500000000, A.D. 2026-Mar-21 00:00:00.0000, -1.749483073634925E+08, 3.855245297457809E+08, -7.237616406566322E+06,
2461127.500000000, A.D. 2026-Mar-28 00:00:00.0000, -1.833612210270520E+08, 3.823389914502249E+08, -5.674953391825050E+06,
2461134.500000000, A.D. 2026-Apr-04 00:00:00.0000, -1.916575506621419E+08, 3.789103261866868E+08, -4.108667129459947E+06,
2461141.500000000, A.D. 2026-Apr-11 00:00:00.0000, -1.998325053148937E+08, 3.752416920433873E+08, -2.539766680805683E+06,
2461148.500000000, A.D. 2026-Apr-18 00:00:00.0000, -2.078813440800515E+08, 3.713362512557694E+08, -9.692538586587906E+05,
2461155.500000000, A.D. 2026-Apr-25 00:00:00.0000, -2.157993708932771E+08, 3.671971720877272E+08, 6.018758078328073E+05,
2461162.500000000, A.D. 2026-May-02 00:00:00.0000, -2.235819295053652E+08, 3.628276307764606E+08, 2.172632111353546E+06,
2461169.500000000, A.D. 2026-May-09 00:00:00.0000, -2.312243985006174E+08, 3.582308134724047E+08, 3.742029189528137E+06,
2461176.500000000, A.D. 2026-May-16 00:00:00.0000, -2.387221859687105E+08, 3.534099183096002E+08, 5.309084508302867E+06,
2461183.500000000, A.D. 2026-May-23 00:00:00.0000, -2.460707237681116E+08, 3.483681586258368E+08, 6.872817883030280E+06,
2461190.500000000, A.D. 2026-May-30 00:00:00.0000, -2.532654634532747E+08, 3.431087676523094E+08, 8.432250752390444E+06,
2461197.500000000, A.D. 2026-Jun-06 00:00:00.0000, -2.603018741766851E+08, 3.376350014031070E+08, 9.986405465011448E+06,
2461204.500000000, A.D. 2026-Jun-13 00:00:00.0000, -2.671754388927631E+08, 3.319501399661322E+08, 1.153430425736341E+07,
2461211.500000000, A.D. 2026-Jun-20 00:00:00.0000, -2.738816493617311E+08, 3.260574901274694E+08, 1.307496820637189E+07,
2461218.500000000, A.D. 2026-Jun-27 00:00:00.0000, -2.804160016479049E+08, 3.199603889998614E+08, 1.460741628291596E+07,
2461225.500000000, A.D. 2026-Jul-04 00:00:00.0000, -2.867739921060777E+08, 3.136622078892366E+08, 1.613066444128494E+07,
2461232.500000000, A.D. 2026-Jul-11 00:00:00.0000, -2.929511135966536E+08, 3.071663562748034E+08, 1.764372470905127E+07,
2461239.500000000, A.D. 2026-Jul-18 00:00:00.0000, -2.989428518332298E+08, 3.004762859366191E+08, 1.914560426950638E+07,
2461246.500000000, A.D. 2026-Jul-25 00:00:00.0000, -3.047446818360356E+08, 2.935954952428747E+08, 2.063530453324382E+07,
2461253.500000000, A.D. 2026-Aug-01 00:00:00.0000, -3.103520644421362E+08, 2.865275335596738E+08, 2.211182018922663E+07,
2461260.500000000, A.D. 2026-Aug-08 00:00:00.0000, -3.157604426575756E+08, 2.792760057595811E+08, 2.357413821148331E+07,
2461267.500000000, A.D. 2026-Aug-15 00:00:00.0000, -3.209652374376445E+08, 2.718445772925636E+08, 2.502123681906414E+07,
2461274.500000000, A.D. 2026-Aug-22 00:00:00.0000, -3.259618436596713E+08, 2.642369810552019E+08, 2.645208455787830E+07,
2461281.500000000, A.D. 2026-Aug-29 00:00:00.0000, -3.307456285833560E+08, 2.564570247031815E+08, 2.786563960135379E+07,
2461288.500000000, A.D. 2026-Sep-05 00:00:00.0000, -3.353119306693286E+08, 2.485085955587206E+08, 2.926084883917572E+07,
2461295.500000000, A.D. 2026-Sep-12 00:00:00.0000, -3.396560563043947E+08, 2.403956656252807E+08, 3.063664673226176E+07,
$$EOE